TDRS 3                  
1 19548U 88091B   16280.27727939 -.00000301  00000-0  00000+0 0  9990
2 19548  14.8460  10.8129 0034814 302.1498  99.8409  1.00280341 89869
SKYNET 4C               
1 20776U 90079A   16274.10195800 -.00000049  00000-0  00000+0 0  9994
2 20776  13.6958  18.7525 0002728 196.1443 189.8620  1.00273374 95376
TDRS 5                  
1 21639U 91054B   16280.15532428  .00000087  00000-0  00000+0 0  9991
2 21639  14.1961  24.1424 0021001 330.7457 268.5650  1.00276808 92190
TDRS 6                  
1 22314U 93003B   16279.44394998 -.00000293  00000-0  00000+0 0  9996
2 22314  13.7021  27.0357 0006530 250.1476 211.3390  1.00268238 86868
INTELSAT 701 (IS-701)   
1 22871U 93066A   16280.15042103 -.00000223  00000-0  00000+0 0  9994
2 22871   3.7121  68.3352 0003879 145.0373 186.5312  1.00270843 83847
NATO 4B                 
1 22921U 93076A   16279.97304314  .00000130  00000-0  00000-0 0  9991
2 22921  12.0847  25.5875 0003388 176.0791 196.3211  1.00269347 83720
INTELSAT 702 (IS-702)   
1 23124U 94034A   16279.33040196 -.00000138  00000-0  00000+0 0  9995
2 23124   4.0503  66.4703 0001747 209.5482 150.6230  0.98938868 95865
OPTUS B3                
1 23227U 94055A   16280.36017190 -.00000085  00000-0  00000+0 0  9996
2 23227   6.9942  52.0355 0005251 167.3092  90.0023  1.00273017 80934
ASTRA 1D                
1 23331U 94070A   16280.38756050 -.00000290  00000-0  00000+0 0  9994
2 23331   7.1706  51.1595 0003544 147.1596 269.4041  1.00272935 80665
BRASILSAT B2            
1 23536U 95016A   16280.34605662 -.00000282  00000-0  00000+0 0  9991
2 23536   6.7928  52.9785 0002084 156.3612 222.6885  1.00271349 78811
AMSC 1                  
1 23553U 95019A   16279.36396203 -.00000117  00000-0  00000-0 0  9999
2 23553   9.7512  42.1723 0006232 176.4393 183.5803  1.00272073 78666
TDRS 7                  
1 23613U 95035B   16279.80823863 -.00000202  00000-0  00000+0 0  9994
2 23613  14.8638  17.8567 0017840  28.3289 344.5117  1.00275746 77644
ECHOSTAR 1              
1 23754U 95073A   16278.36287947 -.00000252  00000-0  00000-0 0  9995
2 23754   0.2726  91.0978 0002572  98.2487 237.5422  1.00272085 16881
INMARSAT 3-F1           
1 23839U 96020A   16280.00743931  .00000001  00000-0  00000+0 0  9996
2 23839   3.4979  68.6493 0005630 132.0738 241.5925  1.00270646 75111
ASTRA 1F                
1 23842U 96021A   16280.05813124  .00000130  00000-0  00000+0 0  9991
2 23842   0.0496 338.6634 0003751 209.7797 251.9554  1.00268650 74820
MSAT M1                 
1 23846U 96022A   16279.39946948 -.00000088  00000-0  00000+0 0  9995
2 23846   7.3593  50.7378 0005310 157.8747 202.1926  1.00272446 74920
PALAPA C2               
1 23864U 96030A   16279.77892796 -.00000245  00000-0  00000+0 0  9992
2 23864   5.0938  60.5871 0000428 219.8884 160.8797  1.00270833 74677
INMARSAT 3-F2           
1 24307U 96053A   16279.30499612 -.00000133  00000-0  00000+0 0  9995
2 24307   2.1073  78.9348 0005873 130.1582 259.6518  1.00271599 73519
AMC-1 (GE-1)            
1 24315U 96054A   16279.56063725  .00000050  00000-0  00000-0 0  9993
2 24315   1.0358  86.2379 0002784 117.3105 243.8075  1.00273148 10813
AFRICASAT-2 (MEASAT-2)  
1 24653U 96063B   16279.87273911 -.00000231  00000-0  00000+0 0  9993
2 24653   7.0879  51.5976 0011719 166.9689 258.5821  1.00270633 72844
EUTELSAT 48A            
1 24665U 96067A   16279.57785867  .00000110  00000-0  00000+0 0  9990
2 24665   5.9294  56.7993 0005152 149.2250  64.9432  1.00272673 73162
INMARSAT 3-F3           
1 24674U 96070A   16280.29728828  .00000030  00000-0  00000+0 0  9990
2 24674   2.9317  72.9602 0005426 130.1018  97.4521  1.00271169 72468
AMC-2 (GE-2)            
1 24713U 97002A   16279.43778105 -.00000218  00000-0  00000+0 0  9996
2 24713   3.8600  67.2612 0004519 125.3840 254.6541  1.00271299 22813
INTELSAT 26 (IS-26)     
1 24732U 97007A   16278.98511149 -.00000002  00000-0  00000+0 0  9995
2 24732   7.0595  51.9039 0003778 169.6777 211.4113  1.00272839 71767
GALAXY 25 (G-25)        
1 24812U 97026A   16279.21881846 -.00000173  00000-0  00000-0 0  9996
2 24812   0.0144 137.6228 0003554  55.0689 167.3253  1.00271446 70859
ABS-3                   
1 24901U 97042A   16279.96160291 -.00000168  00000-0  00000+0 0  9992
2 24901   4.4199  64.7166 0005823 146.6460 228.6678  1.00420379 70024
INTELSAT 5 (IS-5)       
1 24916U 97046A   16279.72444672  .00000000  00000-0  10000-3 0  9993
2 24916   3.0483  72.3156 0003765 135.9406 224.3701  1.00267586 70107
METEOSAT-7              
1 24932U 97049B   16279.90818584  .00000000  00000-0  10000-3 0  9991
2 24932  10.3444  39.5740 0001541 197.7435 162.2672  1.00270624 69916
AMC-3 (GE-3)            
1 24936U 97050A   16279.88267502 -.00000282  00000-0  00000-0 0  9991
2 24936   0.0228 274.5477 0001970 289.0316  62.1839  1.00271811 16939
NSS-5                   
1 24957U 97053A   16279.62161378  .00000101  00000-0  00000+0 0  9991
2 24957   3.3448  70.5536 0003242 125.5269  92.9310  1.00274057 69722
ECHOSTAR 3              
1 25004U 97059A   16280.35614218 -.00000291  00000-0  00000+0 0  9990
2 25004   1.6280  81.2711 0001167 110.6033 250.0163  1.00273775 69643
JCSAT-1B                
1 25067U 97075A   16280.32218416 -.00000211  00000-0  00000+0 0  9996
2 25067   5.1141  60.4083 0006947 168.8645  52.1335  1.00273613 69040
ASTRA 1G                
1 25071U 97076A   16280.11805331  .00000016  00000-0  00000+0 0  9999
2 25071   1.8026  79.1789 0003243 116.8516 284.4948  1.00273261 69034
BRASILSAT B3            
1 25152U 98006A   16279.40936824 -.00000179  00000-0  00000-0 0  9997
2 25152   3.5380  69.6495 0002963 136.5702 223.6781  1.00270588  8007
INMARSAT 3-F5           
1 25153U 98006B   16280.20799072 -.00000295  00000-0  00000+0 0  9998
2 25153   2.0680  74.4389 0004709 118.6087 203.1797  1.00273680 68381
NSS-806                 
1 25239U 98014A   16278.23846737 -.00000291  00000-0  00000-0 0  9990
2 25239   0.0574   1.4834 0004534 193.9660 216.2870  1.00272790 11780
CHINASAT 5A (ZX 5A)     
1 25354U 98033A   16279.84451051 -.00000093  00000-0  00000-0 0  9998
2 25354   0.7093  88.4382 0004139  99.6046 293.9062  1.00272392 71739
THOR III                
1 25358U 98035A   16278.14390840 -.00000050  00000-0  00000-0 0  9997
2 25358   4.9831  60.6455 0002332 146.7583 213.3879  1.00272811 67323
INTELSAT 805 (IS-805)   
1 25371U 98037A   16279.97935516  .00000000  00000-0  10000-3 0  9999
2 25371   0.0124 109.9503 0003335 101.6807 325.0602  1.00270570 67060
ASTRA 2A                
1 25462U 98050A   16279.85713094 -.00000369  00000-0  00000-0 0  9992
2 25462   0.0377 230.3380 0001943 312.0758 254.6215  1.00272468 10826
AFRISTAR                
1 25515U 98063A   16280.18958848  .00000118  00000-0  00000+0 0  9991
2 25515   2.8064  70.3635 0004432 132.1801 262.0272  1.00275083 65629
INTELSAT 8 (IS-8)       
1 25522U 98065A   16279.74384332 -.00000059  00000-0  10000-3 0  9992
2 25522   0.4844  89.1649 0002679  96.4670 265.9651  1.00270469 65623
JCSAT-4A                
1 25630U 99006A   16279.57192336 -.00000165  00000-0  00000+0 0  9993
2 25630   1.7698  81.2212 0001567 109.2541 112.0684  1.00272092 64483
SKYNET 4E               
1 25639U 99009B   16279.75503685  .00000020  00000-0  00000+0 0  9997
2 25639   9.8946  30.5975 0003195 163.9204  98.1418  1.00270600 64507
ASIASAT 3S              
1 25657U 99013A   16279.77985865 -.00000208  00000-0  00000-0 0  9998
2 25657   1.9884  79.4186 0003797 136.0789 230.4500  1.00271986 64314
NIMIQ 1                 
1 25740U 99027A   16280.42722985 -.00000208  00000-0  00000+0 0  9991
2 25740   0.0411 275.0729 0003718 283.6639 244.1376  1.00272831 63701
ASTRA 1H                
1 25785U 99033A   16279.70510840  .00000072  00000-0  00000-0 0  9990
2 25785   3.3283  70.7121 0002897 123.9519 129.3105  1.00272138 15902
TELKOM 1                
1 25880U 99042A   16280.13623613  .00000000  00000-0  10000-3 0  9993
2 25880   0.0222 136.9814 0000872  97.0935 298.2153  1.00265812 62859
ABS-7                   
1 25894U 99046A   16280.20950679  .00000000  00000-0  10000-3 0  9995
2 25894   0.0302 206.0863 0001077 353.0252   7.7103  1.00264833 61647
ABS-6                   
1 25924U 99053A   16279.51755718 -.00000129  00000-0  00000+0 0  9994
2 25924   0.0420  81.7153 0002327 118.6751 159.6271  1.00271527 62361
TELSTAR 12 (ORION 2)    
1 25949U 99059A   16279.43721696 -.00000072  00000-0  00000+0 0  9993
2 25949   0.3972  89.0417 0003271 135.0620 198.6697  1.00272820 62018
AMC-4 (GE-4)            
1 25954U 99060A   16280.49447681  .00000000  00000-0  10000-3 0  9993
2 25954   0.0559 103.9718 0001873  13.7058   8.9077  1.00266754 61995
GALAXY 11 (G-11)        
1 26038U 99071A   16279.87769720  .00000114  00000-0  00000+0 0  9991
2 26038   0.0453 352.7753 0001811 350.0187  38.3021  1.00172547 61607
HISPASAT 1C             
1 26071U 00007A   16279.43780391 -.00000222  00000-0  00000+0 0  9999
2 26071   0.0520  38.9126 0002116 143.6282 265.7877  1.00273473 61129
SUPERBIRD-B2            
1 26095U 00012A   16279.84451051 -.00000102  00000-0  00000-0 0  9992
2 26095   0.0160 212.8951 0002308 354.2919 273.7908  1.00273364  9680
ASIASTAR                
1 26107U 00016A   16279.92940838 -.00000342  00000-0  00000-0 0  9991
2 26107   1.1472  81.8850 0004222 115.0197 257.7356  1.00273435 60429
EUTELSAT 16C            
1 26243U 00019A   16280.09632530  .00000085  00000-0  00000+0 0  9994
2 26243   3.7861  67.5449 0002992 144.8707 211.9603  1.00272901 60282
EUTELSAT 36A            
1 26369U 00028A   16279.98937840 -.00000226  00000-0  00000+0 0  9999
2 26369   0.4852  82.3327 0004918 127.8788 249.5840  1.00273856 59979
TDRS 8                  
1 26388U 00034A   16279.87211233  .00000000  00000-0  10000-3 0  9990
2 26388   7.0591  58.0557 0009287 165.4573 194.6392  1.00265222 59668
